[
  {
    "OBJECT_NAME": "STARLINK-5754",
    "OBJECT_ID": "23020L",
    "EPOCH": "2025-11-11T05:58:12.996192",
    "MEAN_MOTION": 15.02542933,
    "ECCENTRICITY": 0.0001061,
    "INCLINATION": 43.0039,
    "RA_OF_ASC_NODE": 288.1367,
    "ARG_OF_PERICENTER": 276.1727,
    "MEAN_ANOMALY": 83.8995,
    "EPHEMERIS_TYPE": 0,
    "CLASSIFICATION_TYPE": "U",
    "NORAD_CAT_ID": 55579,
    "ELEMENT_SET_NO": 999,
    "REV_AT_EPOCH": 15110,
    "BSTAR": 7.081800000000001e-05,
    "MEAN_MOTION_DOT": 7.53e-06,
    "MEAN_MOTION_DDOT": 0.0,
    "TLE_LINE1": "1 55579U 23020L   25315.24876153  .00000753  00000+0  70818-4 0  9992",
    "TLE_LINE2": "2 55579  43.0039 288.1367 0001061 276.1727  83.8995 15.02542933151101",
    "COMMENT": "Grouped by shell and plane from TLE"
  },
  {
    "OBJECT_NAME": "STARLINK-5753",
    "OBJECT_ID": "23020N",
    "EPOCH": "2025-11-10T23:56:06.018432",
    "MEAN_MOTION": 15.02531343,
    "ECCENTRICITY": 0.0001053,
    "INCLINATION": 43.0042,
    "RA_OF_ASC_NODE": 289.6879,
    "ARG_OF_PERICENTER": 264.4545,
    "MEAN_ANOMALY": 95.6177,
    "EPHEMERIS_TYPE": 0,
    "CLASSIFICATION_TYPE": "U",
    "NORAD_CAT_ID": 55581,
    "ELEMENT_SET_NO": 999,
    "REV_AT_EPOCH": 15106,
    "BSTAR": 0.0,
    "MEAN_MOTION_DOT": -4.87e-06,
    "MEAN_MOTION_DDOT": 0.0,
    "TLE_LINE1": "1 55581U 23020N   25314.99729188 -.00000487  00000+0 -20976-4 0  9997",
    "TLE_LINE2": "2 55581  43.0042 289.6879 0001053 264.4545  95.6177 15.02531343151062",
    "COMMENT": "Grouped by shell and plane from TLE"
  },
  {
    "OBJECT_NAME": "STARLINK-5742",
    "OBJECT_ID": "23020Q",
    "EPOCH": "2025-11-11T06:09:24.008832",
    "MEAN_MOTION": 15.02539857,
    "ECCENTRICITY": 0.0001196,
    "INCLINATION": 43.0041,
    "RA_OF_ASC_NODE": 288.1923,
    "ARG_OF_PERICENTER": 271.8722,
    "MEAN_ANOMALY": 88.1983,
    "EPHEMERIS_TYPE": 0,
    "CLASSIFICATION_TYPE": "U",
    "NORAD_CAT_ID": 55583,
    "ELEMENT_SET_NO": 999,
    "REV_AT_EPOCH": 15110,
    "BSTAR": 0.00020454000000000002,
    "MEAN_MOTION_DOT": 2.561e-05,
    "MEAN_MOTION_DDOT": 0.0,
    "TLE_LINE1": "1 55583U 23020Q   25315.25652788  .00002561  00000+0  20454-3 0  9993",
    "TLE_LINE2": "2 55583  43.0041 288.1923 0001196 271.8722  88.1983 15.02539857151109",
    "COMMENT": "Grouped by shell and plane from TLE"
  },
  {
    "OBJECT_NAME": "STARLINK-5736",
    "OBJECT_ID": "23020R",
    "EPOCH": "2025-11-11T06:06:12.895488",
    "MEAN_MOTION": 15.02550483,
    "ECCENTRICITY": 0.0001128,
    "INCLINATION": 43.0026,
    "RA_OF_ASC_NODE": 288.178,
    "ARG_OF_PERICENTER": 285.7214,
    "MEAN_ANOMALY": 74.3504,
    "EPHEMERIS_TYPE": 0,
    "CLASSIFICATION_TYPE": "U",
    "NORAD_CAT_ID": 55584,
    "ELEMENT_SET_NO": 999,
    "REV_AT_EPOCH": 15110,
    "BSTAR": 1.5417e-05,
    "MEAN_MOTION_DOT": 5e-08,
    "MEAN_MOTION_DDOT": 0.0,
    "TLE_LINE1": "1 55584U 23020R   25315.25431592  .00000005  00000+0  15417-4 0  9997",
    "TLE_LINE2": "2 55584  43.0026 288.1780 0001128 285.7214  74.3504 15.02550483151103",
    "COMMENT": "Grouped by shell and plane from TLE"
  },
  {
    "OBJECT_NAME": "STARLINK-5767",
    "OBJECT_ID": "23020T",
    "EPOCH": "2025-11-11T05:55:01.554528",
    "MEAN_MOTION": 15.02550864,
    "ECCENTRICITY": 0.0001288,
    "INCLINATION": 43.0044,
    "RA_OF_ASC_NODE": 288.1192,
    "ARG_OF_PERICENTER": 262.9671,
    "MEAN_ANOMALY": 97.1025,
    "EPHEMERIS_TYPE": 0,
    "CLASSIFICATION_TYPE": "U",
    "NORAD_CAT_ID": 55586,
    "ELEMENT_SET_NO": 999,
    "REV_AT_EPOCH": 15110,
    "BSTAR": 0.0,
    "MEAN_MOTION_DOT": -3.456e-05,
    "MEAN_MOTION_DDOT": 0.0,
    "TLE_LINE1": "1 55586U 23020T   25315.24654577 -.00003456  00000+0 -24077-3 0  9994",
    "TLE_LINE2": "2 55586  43.0044 288.1192 0001288 262.9671  97.1025 15.02550864151107",
    "COMMENT": "Grouped by shell and plane from TLE"
  },
  {
    "OBJECT_NAME": "STARLINK-5727",
    "OBJECT_ID": "23020U",
    "EPOCH": "2025-11-11T06:02:59.886528",
    "MEAN_MOTION": 15.02543326,
    "ECCENTRICITY": 0.0001031,
    "INCLINATION": 43.0037,
    "RA_OF_ASC_NODE": 288.0986,
    "ARG_OF_PERICENTER": 280.0124,
    "MEAN_ANOMALY": 80.0602,
    "EPHEMERIS_TYPE": 0,
    "CLASSIFICATION_TYPE": "U",
    "NORAD_CAT_ID": 55587,
    "ELEMENT_SET_NO": 999,
    "REV_AT_EPOCH": 15110,
    "BSTAR": 0.0001603,
    "MEAN_MOTION_DOT": 1.963e-05,
    "MEAN_MOTION_DDOT": 0.0,
    "TLE_LINE1": "1 55587U 23020U   25315.25208202  .00001963  00000+0  16030-3 0  9995",
    "TLE_LINE2": "2 55587  43.0037 288.0986 0001031 280.0124  80.0602 15.02543326151107",
    "COMMENT": "Grouped by shell and plane from TLE"
  },
  {
    "OBJECT_NAME": "STARLINK-5728",
    "OBJECT_ID": "23020V",
    "EPOCH": "2025-11-11T05:45:26.218656",
    "MEAN_MOTION": 15.0254077,
    "ECCENTRICITY": 0.0001248,
    "INCLINATION": 43.0053,
    "RA_OF_ASC_NODE": 288.0688,
    "ARG_OF_PERICENTER": 269.692,
    "MEAN_ANOMALY": 90.378,
    "EPHEMERIS_TYPE": 0,
    "CLASSIFICATION_TYPE": "U",
    "NORAD_CAT_ID": 55588,
    "ELEMENT_SET_NO": 999,
    "REV_AT_EPOCH": 15110,
    "BSTAR": 7.1655e-05,
    "MEAN_MOTION_DOT": 7.65e-06,
    "MEAN_MOTION_DDOT": 0.0,
    "TLE_LINE1": "1 55588U 23020V   25315.23988679  .00000765  00000+0  71655-4 0  9991",
    "TLE_LINE2": "2 55588  43.0053 288.0688 0001248 269.6920  90.3780 15.02540770151103",
    "COMMENT": "Grouped by shell and plane from TLE"
  },
  {
    "OBJECT_NAME": "STARLINK-5697",
    "OBJECT_ID": "23020W",
    "EPOCH": "2025-11-11T05:53:25.735200",
    "MEAN_MOTION": 15.02536104,
    "ECCENTRICITY": 0.0001125,
    "INCLINATION": 43.0042,
    "RA_OF_ASC_NODE": 288.1125,
    "ARG_OF_PERICENTER": 269.1775,
    "MEAN_ANOMALY": 90.8939,
    "EPHEMERIS_TYPE": 0,
    "CLASSIFICATION_TYPE": "U",
    "NORAD_CAT_ID": 55589,
    "ELEMENT_SET_NO": 999,
    "REV_AT_EPOCH": 15110,
    "BSTAR": 4.0226000000000004e-05,
    "MEAN_MOTION_DOT": 3.4e-06,
    "MEAN_MOTION_DDOT": 0.0,
    "TLE_LINE1": "1 55589U 23020W   25315.24543675  .00000340  00000+0  40226-4 0  9995",
    "TLE_LINE2": "2 55589  43.0042 288.1125 0001125 269.1775  90.8939 15.02536104151103",
    "COMMENT": "Grouped by shell and plane from TLE"
  },
  {
    "OBJECT_NAME": "STARLINK-5762",
    "OBJECT_ID": "23020X",
    "EPOCH": "2025-11-11T07:11:32.993952",
    "MEAN_MOTION": 15.02553009,
    "ECCENTRICITY": 0.0001333,
    "INCLINATION": 43.0042,
    "RA_OF_ASC_NODE": 287.6579,
    "ARG_OF_PERICENTER": 271.5841,
    "MEAN_ANOMALY": 88.4849,
    "EPHEMERIS_TYPE": 0,
    "CLASSIFICATION_TYPE": "U",
    "NORAD_CAT_ID": 55590,
    "ELEMENT_SET_NO": 999,
    "REV_AT_EPOCH": 15111,
    "BSTAR": 0.00016947000000000002,
    "MEAN_MOTION_DOT": 2.087e-05,
    "MEAN_MOTION_DDOT": 0.0,
    "TLE_LINE1": "1 55590U 23020X   25315.29968743  .00002087  00000+0  16947-3 0  9991",
    "TLE_LINE2": "2 55590  43.0042 287.6579 0001333 271.5841  88.4849 15.02553009151111",
    "COMMENT": "Grouped by shell and plane from TLE"
  },
  {
    "OBJECT_NAME": "STARLINK-5760",
    "OBJECT_ID": "23020Y",
    "EPOCH": "2025-11-11T05:50:13.272288",
    "MEAN_MOTION": 15.02540982,
    "ECCENTRICITY": 8.46e-05,
    "INCLINATION": 43.003,
    "RA_OF_ASC_NODE": 288.0936,
    "ARG_OF_PERICENTER": 279.0764,
    "MEAN_ANOMALY": 80.9982,
    "EPHEMERIS_TYPE": 0,
    "CLASSIFICATION_TYPE": "U",
    "NORAD_CAT_ID": 55591,
    "ELEMENT_SET_NO": 999,
    "REV_AT_EPOCH": 15110,
    "BSTAR": 0.00016302,
    "MEAN_MOTION_DOT": 2e-05,
    "MEAN_MOTION_DDOT": 0.0,
    "TLE_LINE1": "1 55591U 23020Y   25315.24320917  .00002000  00000+0  16302-3 0  9992",
    "TLE_LINE2": "2 55591  43.0030 288.0936 0000846 279.0764  80.9982 15.02540982151106",
    "COMMENT": "Grouped by shell and plane from TLE"
  },
  {
    "OBJECT_NAME": "STARLINK-5759",
    "OBJECT_ID": "23020Z",
    "EPOCH": "2025-11-11T07:05:10.609152",
    "MEAN_MOTION": 15.025398,
    "ECCENTRICITY": 0.0001154,
    "INCLINATION": 43.0044,
    "RA_OF_ASC_NODE": 287.6247,
    "ARG_OF_PERICENTER": 270.8996,
    "MEAN_ANOMALY": 89.1714,
    "EPHEMERIS_TYPE": 0,
    "CLASSIFICATION_TYPE": "U",
    "NORAD_CAT_ID": 55592,
    "ELEMENT_SET_NO": 999,
    "REV_AT_EPOCH": 15111,
    "BSTAR": 0.00012491,
    "MEAN_MOTION_DOT": 1.484e-05,
    "MEAN_MOTION_DDOT": 0.0,
    "TLE_LINE1": "1 55592U 23020Z   25315.29526168  .00001484  00000+0  12491-3 0  9994",
    "TLE_LINE2": "2 55592  43.0044 287.6247 0001154 270.8996  89.1714 15.02539800151113",
    "COMMENT": "Grouped by shell and plane from TLE"
  },
  {
    "OBJECT_NAME": "STARLINK-5703",
    "OBJECT_ID": "23020AA",
    "EPOCH": "2025-11-11T07:16:21.610560",
    "MEAN_MOTION": 15.02541765,
    "ECCENTRICITY": 9.73e-05,
    "INCLINATION": 43.0041,
    "RA_OF_ASC_NODE": 287.684,
    "ARG_OF_PERICENTER": 268.7166,
    "MEAN_ANOMALY": 91.3565,
    "EPHEMERIS_TYPE": 0,
    "CLASSIFICATION_TYPE": "U",
    "NORAD_CAT_ID": 55593,
    "ELEMENT_SET_NO": 999,
    "REV_AT_EPOCH": 15111,
    "BSTAR": 9.7853e-05,
    "MEAN_MOTION_DOT": 1.119e-05,
    "MEAN_MOTION_DDOT": 0.0,
    "TLE_LINE1": "1 55593U 23020AA  25315.30302790  .00001119  00000+0  97853-4 0  9991",
    "TLE_LINE2": "2 55593  43.0041 287.6840 0000973 268.7166  91.3565 15.02541765151115",
    "COMMENT": "Grouped by shell and plane from TLE"
  },
  {
    "OBJECT_NAME": "STARLINK-5750",
    "OBJECT_ID": "23020AB",
    "EPOCH": "2025-11-11T07:00:23.184000",
    "MEAN_MOTION": 15.02536157,
    "ECCENTRICITY": 0.0001526,
    "INCLINATION": 43.0063,
    "RA_OF_ASC_NODE": 287.6038,
    "ARG_OF_PERICENTER": 272.8745,
    "MEAN_ANOMALY": 87.1922,
    "EPHEMERIS_TYPE": 0,
    "CLASSIFICATION_TYPE": "U",
    "NORAD_CAT_ID": 55594,
    "ELEMENT_SET_NO": 999,
    "REV_AT_EPOCH": 15111,
    "BSTAR": 0.0,
    "MEAN_MOTION_DOT": -3.6e-06,
    "MEAN_MOTION_DDOT": 0.0,
    "TLE_LINE1": "1 55594U 23020AB  25315.29193500 -.00000360  00000+0 -11561-4 0  9998",
    "TLE_LINE2": "2 55594  43.0063 287.6038 0001526 272.8745  87.1922 15.02536157151112",
    "COMMENT": "Grouped by shell and plane from TLE"
  }
]